SAUDISAT 5A             
1 43831U 18102A   26167.18254259  .00005061  00000+0  18744-3 0  9997
2 43831  97.3069 228.7828 0010954 132.0608 228.1566 15.28040016415525
SAUDISAT 5B             
1 43833U 18102C   26167.20155546  .00004611  00000+0  16966-3 0  9995
2 43833  97.3177 231.8694 0011621 134.2852 225.9343 15.28296921415649
GAOFEN-10R              
1 44622U 19066A   26167.20923186  .00000960  00000+0  12464-3 0  9997
2 44622  98.0497 120.7813 0006622 130.2072 229.9722 14.83058994362230
CARTOSAT-3              
1 44804U 19081A   26167.16939134  .00004088  00000+0  19662-3 0  9993
2 44804  97.4309 229.0524 0013169 151.9247 208.2701 15.19277426363317
GAOFEN-12 01            
1 44819U 19082A   26167.20107402  .00000319  00000+0  48376-4 0  9998
2 44819  97.8100 173.6066 0002306  71.3749 288.7713 14.80457818353940
CSG-1                   
1 44873U 19092A   26167.17370994  .00000351  00000+0  50692-4 0  9993
2 44873  97.8888 350.7909 0001456  89.4381 270.6999 14.82152488351327
NEMO-HD                 
1 46277U 20061F   26167.15798966  .00009691  00000+0  21036-3 0  9997
2 46277  97.1920 229.1212 0002321  82.1599 277.9913 15.44577077321828
SENTINEL-6A             
1 46984U 20086A   26167.22664818 -.00000075  00000+0 -59675-4 0  9995
2 46984  66.0394 137.0474 0007943 270.2385  89.7720 12.80929950260205
CAS500-1                
1 47932U 21022A   26167.20729941  .00002452  00000+0  11636-3 0  9990
2 47932  97.3905  62.4809 0003809 307.1578  52.9309 15.20192074290617
GAOFEN-12 02            
1 48079U 21026A   26167.21202679  .00000308  00000+0  47364-4 0  9998
2 48079  97.9928 165.3966 0003615 225.8619 134.2296 14.80295549281610
PLEIADES NEO 3          
1 48268U 21034A   26167.17262875  .00001301  00000+0  17189-3 0  9991
2 48268  97.8937 241.9537 0001377  89.5806 270.5564 14.81673250277505
PLEIADES NEO 4          
1 49070U 21073E   26167.13885209  .00000278  00000+0  41922-4 0  9999
2 49070  97.8942 241.9160 0001372  87.4861 272.6509 14.81672864261211
LANDSAT 9               
1 49260U 21088A   26167.16646889  .00000317  00000+0  80381-4 0  9994
2 49260  98.2281 237.3563 0001357  85.6882 274.4471 14.57096555250851
CSG-2                   
1 51444U 22008A   26167.13993902  .00000643  00000+0  87316-4 0  9999
2 51444  97.8876 350.7527 0001444  85.0358 275.1020 14.82156584236435
GAOFEN-12 03            
1 52912U 22069A   26167.17416029  .00000871  00000+0  12181-3 0  9991
2 52912  97.8287  55.0705 0001985 102.7022 257.4412 14.80033308214463
SWOT                    
1 54754U 22173A   26167.13080208  .00000034  00000+0  24536-4 0  9994
2 54754  77.6107  36.7363 0000233  87.4655 272.6523 14.00169573179006
GAOFEN-12 04            
1 57654U 23123A   26167.19097233  .00000861  00000+0  12004-3 0  9998
2 57654  97.9123  85.2231 0001796  83.6372 276.5044 14.80227220152489
PARS 1                  
1 59065U 24039Q   26167.21398858  .00009091  00000+0  18974-3 0  9999
2 59065  97.4820 148.1030 0011458 114.4741 245.7704 15.45706596128496
RESURS-P 4              
1 59371U 24061A   26167.15287509  .00002683  00000+0  88975-4 0  9996
2 59371  97.2755 115.0696 0002101 128.2419 231.9012 15.32126316123601
LEGION 1                
1 59625U 24081A   26167.17138889  .00003279  00000+0  17083-3 0  9991
2 59625  97.5021 245.0390 0009617  21.3192 338.8439 15.16661087117386
LEGION 2                
1 59626U 24081B   26167.20135309  .00002937  00000+0  15347-3 0  9991
2 59626  97.5021 245.1662 0010866 347.1947  12.9009 15.16640365117395
ALOS-4 (DAICHI-4)       
1 60182U 24123A   26166.87348892  .00001272  00000+0  17718-3 0  9997
2 60182  97.9245 264.0657 0001588  97.6943 262.4449 14.79475009105682
LEGION 3                
1 60452U 24146A   26167.14254765  .00002840  00000+0  15872-3 0  9999
2 60452  45.0021  36.1579 0007506 164.2289 195.8824 15.16031003101865
LEGION 4                
1 60453U 24146B   26167.14563141  .00003297  00000+0  18189-3 0  9992
2 60453  45.0001 128.0509 0013841 302.9764  56.9783 15.16022801100716
SENTINEL-2C             
1 60989U 24157A   26167.19352455  .00000095  00000+0  52939-4 0  9992
2 60989  98.5692 241.9895 0001029  81.0061 279.1238 14.30817576 92846
IONOSFERA-M 1           
1 61735U 24199A   26167.13890304  .00000054  00000+0  43690-4 0  9991
2 61735  98.7174  40.3222 0001928 111.7449 248.3934 14.22754162127557
IONOSFERA-M 2           
1 61736U 24199B   26167.17320067  .00000057  00000+0  44901-4 0  9999
2 61736  98.7173  40.2668 0001093  39.0794 321.0463 14.22757387130684
PRSC-EO1                
1 62725U 25012A   26166.27955253  .00006175  00000+0  30911-3 0  9996
2 62725  97.4230 238.7768 0004318 259.0551 101.0197 15.17748554 77902
BIOMASS                 
1 63772U 25090A   26167.07894703  .00000847  00000+0  15791-3 0  9995
2 63772  98.0740 354.4119 0001362  92.6673 267.4687 14.67536195 60527
GOSAT-GW (IBUKI GW)     
1 64694U 25141A   26167.16742715  .00000641  00000+0  12146-3 0  9994
2 64694  98.0569 104.5011 0001420  83.5099 276.6268 14.67554622 51691
IONOSFERA-M 3           
1 64876U 25155A   26167.18998924  .00000034  00000+0  35307-4 0  9999
2 64876  98.6024 129.1201 0000963 158.7406 201.3812 14.21486307 46268
