OBJECT_NAME,OBJECT_ID,EPOCH,MEAN_MOTION,ECCENTRICITY,INCLINATION,RA_OF_ASC_NODE,ARG_OF_PERICENTER,MEAN_ANOMALY,EPHEMERIS_TYPE,CLASSIFICATION_TYPE,NORAD_CAT_ID,ELEMENT_SET_NO,REV_AT_EPOCH,BSTAR,MEAN_MOTION_DOT,MEAN_MOTION_DDOT
SAUDISAT 5A,2018-102A,2026-06-16T04:22:51.679776,15.28040016,.0010954,97.3069,228.7828,132.0608,228.1566,0,U,43831,999,41552,.18744E-3,.5061E-4,0
SAUDISAT 5B,2018-102C,2026-06-16T04:50:14.391744,15.28296921,.0011621,97.3177,231.8694,134.2852,225.9343,0,U,43833,999,41564,.16966E-3,.4611E-4,0
GAOFEN-10R,2019-066A,2026-06-16T05:01:17.632704,14.83058994,.0006622,98.0497,120.7813,130.2072,229.9722,0,U,44622,999,36223,.12464E-3,.96E-5,0
CARTOSAT-3,2019-081A,2026-06-16T04:03:55.411776,15.19277426,.0013169,97.4309,229.0524,151.9247,208.2701,0,U,44804,999,36331,.19662E-3,.4088E-4,0
GAOFEN-12 01,2019-082A,2026-06-16T04:49:32.795328,14.80457818,.0002306,97.8100,173.6066,71.3749,288.7713,0,U,44819,999,35394,.48376E-4,.319E-5,0
CSG-1,2019-092A,2026-06-16T04:10:08.538816,14.82152488,.0001456,97.8888,350.7909,89.4381,270.6999,0,U,44873,999,35132,.50692E-4,.351E-5,0
NEMO-HD,2020-061F,2026-06-16T03:47:30.306624,15.44577077,.0002321,97.1920,229.1212,82.1599,277.9913,0,U,46277,999,32182,.21036E-3,.9691E-4,0
SENTINEL-6A,2020-086A,2026-06-16T05:26:22.402752,12.80929950,.0007943,66.0394,137.0474,270.2385,89.7720,0,U,46984,999,26020,-.59675E-4,-.75E-6,0
CAS500-1,2021-022A,2026-06-16T04:58:30.669024,15.20192074,.0003809,97.3905,62.4809,307.1578,52.9309,0,U,47932,999,29061,.11636E-3,.2452E-4,0
GAOFEN-12 02,2021-026A,2026-06-16T05:05:19.114656,14.80295549,.0003615,97.9928,165.3966,225.8619,134.2296,0,U,48079,999,28161,.47364E-4,.308E-5,0
PLEIADES NEO 3,2021-034A,2026-06-16T04:08:35.124000,14.81673250,.0001377,97.8937,241.9537,89.5806,270.5564,0,U,48268,999,27750,.17189E-3,.1301E-4,0
PLEIADES NEO 4,2021-073E,2026-06-16T03:19:56.820576,14.81672864,.0001372,97.8942,241.9160,87.4861,272.6509,0,U,49070,999,26121,.41922E-4,.278E-5,0
LANDSAT 9,2021-088A,2026-06-16T03:59:42.912096,14.57096555,.0001357,98.2281,237.3563,85.6882,274.4471,0,U,49260,999,25085,.80381E-4,.317E-5,0
CSG-2,2022-008A,2026-06-16T03:21:30.731328,14.82156584,.0001444,97.8876,350.7527,85.0358,275.1020,0,U,51444,999,23643,.87316E-4,.643E-5,0
GAOFEN-12 03,2022-069A,2026-06-16T04:10:47.449056,14.80033308,.0001985,97.8287,55.0705,102.7022,257.4412,0,U,52912,999,21446,.12181E-3,.871E-5,0
SWOT,2022-173A,2026-06-16T03:08:21.299712,14.00169573,.0000233,77.6107,36.7363,87.4655,272.6523,0,U,54754,999,17900,.24536E-4,.34E-6,0
GAOFEN-12 04,2023-123A,2026-06-16T04:35:00.009312,14.80227220,.0001796,97.9123,85.2231,83.6372,276.5044,0,U,57654,999,15248,.12004E-3,.861E-5,0
PARS 1,2024-039Q,2026-06-16T05:08:08.613312,15.45706596,.0011458,97.4820,148.1030,114.4741,245.7704,0,U,59065,999,12849,.18974E-3,.9091E-4,0
RESURS-P 4,2024-061A,2026-06-16T03:40:08.407776,15.32126316,.0002101,97.2755,115.0696,128.2419,231.9012,0,U,59371,999,12360,.88975E-4,.2683E-4,0
LEGION 1,2024-081A,2026-06-16T04:06:48.000096,15.16661087,.0009617,97.5021,245.0390,21.3192,338.8439,0,U,59625,999,11738,.17083E-3,.3279E-4,0
LEGION 2,2024-081B,2026-06-16T04:49:56.906976,15.16640365,.0010866,97.5021,245.1662,347.1947,12.9009,0,U,59626,999,11739,.15347E-3,.2937E-4,0
ALOS-4 (DAICHI-4),2024-123A,2026-06-15T20:57:49.442688,14.79475009,.0001588,97.9245,264.0657,97.6943,262.4449,0,U,60182,999,10568,.17718E-3,.1272E-4,0
LEGION 3,2024-146A,2026-06-16T03:25:16.116960,15.16031003,.0007506,45.0021,36.1579,164.2289,195.8824,0,U,60452,999,10186,.15872E-3,.284E-4,0
LEGION 4,2024-146B,2026-06-16T03:29:42.553824,15.16022801,.0013841,45.0001,128.0509,302.9764,56.9783,0,U,60453,999,10071,.18189E-3,.3297E-4,0
SENTINEL-2C,2024-157A,2026-06-16T04:38:40.521120,14.30817576,.0001029,98.5692,241.9895,81.0061,279.1238,0,U,60989,999,9284,.52939E-4,.95E-6,0
IONOSFERA-M 1,2024-199A,2026-06-16T03:20:01.222656,14.22754162,.0001928,98.7174,40.3222,111.7449,248.3934,0,U,61735,999,12755,.4369E-4,.54E-6,0
IONOSFERA-M 2,2024-199B,2026-06-16T04:09:24.537888,14.22757387,.0001093,98.7173,40.2668,39.0794,321.0463,0,U,61736,999,13068,.44901E-4,.57E-6,0
PRSC-EO1,2025-012A,2026-06-15T06:42:33.338592,15.17748554,.0004318,97.4230,238.7768,259.0551,101.0197,0,U,62725,999,7790,.30911E-3,.6175E-4,0
BIOMASS,2025-090A,2026-06-16T01:53:41.023392,14.67536195,.0001362,98.0740,354.4119,92.6673,267.4687,0,U,63772,999,6052,.15791E-3,.847E-5,0
GOSAT-GW (IBUKI GW),2025-141A,2026-06-16T04:01:05.705760,14.67554622,.000142,98.0569,104.5011,83.5099,276.6268,0,U,64694,999,5169,.12146E-3,.641E-5,0
IONOSFERA-M 3,2025-155A,2026-06-16T04:33:35.070336,14.21486307,.0000963,98.6024,129.1201,158.7406,201.3812,0,U,64876,999,4626,.35307E-4,.34E-6,0
